ONEWEB-0588             
1 55153U 23004P   24199.82949989 -.00000299  00000+0 -79170-3 0  9999
2 55153  87.9151 114.7352 0001632  92.7094 267.4224 13.18686350 77527
ONEWEB-0598             
1 55154U 23004Q   24199.90035034  .00000040  00000+0  77809-4 0  9996
2 55154  87.8980 160.2772 0001352  74.4662 285.6615 13.11417623 74246
ONEWEB-0599             
1 55155U 23004R   24199.88059722 -.00000005  00000+0 -46406-4 0  9996
2 55155  87.9193 145.0927 0001995  75.7057 284.4296 13.17649101 75395
ONEWEB-0614             
1 55156U 23004S   24199.89527636  .00000236  00000+0  62892-3 0  9992
2 55156  87.8980 160.2824 0002341  91.7049 268.4347 13.11415124 74184
ONEWEB-0616             
1 55157U 23004T   24199.92258900 -.00000310  00000+0 -83184-3 0  9994
2 55157  87.9189 145.0912 0002726  55.4724 304.6664 13.17649411 75618
ONEWEB-0617             
1 55158U 23004U   24199.95970654  .00000552  00000+0  15210-2 0  9995
2 55158  87.8978 160.2635 0002053  95.6214 264.5148 13.11416418 74217
ONEWEB-0618             
1 55159U 23004V   24199.96650524  .00000372  00000+0  14579-3 0  9996
2 55159  86.9048  82.4193 0013113 175.4480 184.6834 14.26846185 79732
ONEWEB-0619             
1 55160U 23004W   24199.87897404 -.00000248  00000+0 -67106-3 0  9996
2 55160  87.9189 145.0765 0002641  75.2924 284.8500 13.17649671 75500
